CCSDS_OEM_VERS = 1.0
CREATION_DATE  = 2017-05-11T11:32:14
ORIGINATOR     = GMAT USER

META_START
OBJECT_NAME          = MOPSSat_alt_35785_km_RAAN_180_032
OBJECT_ID            = SatId
CENTER_NAME          = Earth
REF_FRAME            = EME2000
TIME_SYSTEM          = UTC
START_TIME           = 2017-01-01T00:00:00.000
USEABLE_START_TIME   = 2017-01-01T00:00:00.000
USEABLE_STOP_TIME    = 2017-01-02T00:00:00.000
STOP_TIME            = 2017-01-02T00:00:00.000
INTERPOLATION        = Lagrange
INTERPOLATION_DEGREE = 7 
META_STOP


                                                                                   

2017-01-01T19:42:30.000  -1.878032942710845e+04   3.775082100130922e+04  -6.491269921280982e-01  -2.752826275413444e+00  -1.369562721889165e+00   1.635199693734841e-04
2017-01-01T19:42:40.000  -1.880785269404967e+04   3.773711533838334e+04  -6.474914379381518e-01  -2.751826921400153e+00  -1.371569768124340e+00   1.635908574576279e-04
2017-01-01T19:42:50.000  -1.883536595988668e+04   3.772338960876325e+04  -6.458551753106936e-01  -2.750826104005165e+00  -1.373576085074685e+00   1.636616597963147e-04
2017-01-01T19:43:00.000  -1.886286921020431e+04   3.770964381963953e+04  -6.442182050906152e-01  -2.749823823752706e+00  -1.375581671688959e+00   1.637323763352390e-04
2017-01-01T19:43:10.000  -1.889036243067034e+04   3.769587797817519e+04  -6.425805281187656e-01  -2.748820081164989e+00  -1.377586526921965e+00   1.638030070203464e-04
2017-01-01T19:43:20.000  -1.891784560667797e+04   3.768209209168120e+04  -6.409421452530653e-01  -2.747814876775018e+00  -1.379590649708486e+00   1.638735517968998e-04
2017-01-01T19:43:30.000  -1.894531872361166e+04   3.766828616748696e+04  -6.393030573528600e-01  -2.746808211117140e+00  -1.381594038982666e+00   1.639440106101770e-04
2017-01-01T19:43:40.000  -1.897278176684654e+04   3.765446021293916e+04  -6.376632652788792e-01  -2.745800084726964e+00  -1.383596693677969e+00   1.640143834054645e-04
2017-01-01T19:43:50.000  -1.900023472148571e+04   3.764061423553745e+04  -6.360227699090971e-01  -2.744790498151250e+00  -1.385598612708024e+00   1.640846701273948e-04
2017-01-01T19:44:00.000  -1.902767757271466e+04   3.762674824275272e+04  -6.343815721174072e-01  -2.743779451934663e+00  -1.387599794992463e+00   1.641548707208451e-04
2017-01-01T19:44:10.000  -1.905511030566148e+04   3.761286224209844e+04  -6.327396727820087e-01  -2.742766946624977e+00  -1.389600239446737e+00   1.642249851305803e-04
2017-01-01T19:44:20.000  -1.908253290601599e+04   3.759895624081732e+04  -6.310970727483609e-01  -2.741752982750216e+00  -1.391599945027258e+00   1.642950133028394e-04
2017-01-01T19:44:30.000  -1.910994535941055e+04   3.758503024619440e+04  -6.294537728662221e-01  -2.740737560841496e+00  -1.393598910686245e+00   1.643649551837471e-04
2017-01-01T19:44:40.000  -1.913734765156023e+04   3.757108426548659e+04  -6.278097739812877e-01  -2.739720681427883e+00  -1.395597135381951e+00   1.644348107196767e-04
2017-01-01T19:44:50.000  -1.916473976790651e+04   3.755711830610063e+04  -6.261650769563852e-01  -2.738702345049358e+00  -1.397594618052679e+00   1.645045798563236e-04
2017-01-01T19:45:00.000  -1.919212169388227e+04   3.754313237546160e+04  -6.245196826557646e-01  -2.737682552247258e+00  -1.399591357636100e+00   1.645742625393999e-04
2017-01-01T19:45:10.000  -1.921949341491114e+04   3.752912648101208e+04  -6.228735919450605e-01  -2.736661303564179e+00  -1.401587353069216e+00   1.646438587146250e-04
2017-01-01T19:45:20.000  -1.924685491614577e+04   3.751510063034929e+04  -6.212268057072104e-01  -2.735638599554004e+00  -1.403582603269265e+00   1.647133683270837e-04
2017-01-01T19:45:30.000  -1.927420618282097e+04   3.750105483104122e+04  -6.195793248210478e-01  -2.734614440768481e+00  -1.405577107159478e+00   1.647827913221005e-04
2017-01-01T19:45:40.000  -1.930154720011181e+04   3.748698909070020e+04  -6.179311501698849e-01  -2.733588827762588e+00  -1.407570863658727e+00   1.648521276448871e-04
2017-01-01T19:45:50.000  -1.932887795376098e+04   3.747290341666001e+04  -6.162822826036947e-01  -2.732561761071003e+00  -1.409563871727278e+00   1.649213772421156e-04
2017-01-01T19:46:00.000  -1.935619842944973e+04   3.745879781629947e+04  -6.146327229770169e-01  -2.731533241231674e+00  -1.411556130320915e+00   1.649905400603405e-04
2017-01-01T19:46:10.000  -1.938350861296035e+04   3.744467229695894e+04  -6.129824721391787e-01  -2.730503268779755e+00  -1.413547638402794e+00   1.650596160464048e-04
2017-01-01T19:46:20.000  -1.941080848973904e+04   3.743052686616369e+04  -6.113315309605670e-01  -2.729471844263885e+00  -1.415538394911554e+00   1.651286051463452e-04
2017-01-01T19:46:30.000  -1.943809804525675e+04   3.741636153144012e+04  -6.096799003109595e-01  -2.728438968232775e+00  -1.417528398787649e+00   1.651975073062943e-04
2017-01-01T19:46:40.000  -1.946537726492611e+04   3.740217630035784e+04  -6.080275810645187e-01  -2.727404641238298e+00  -1.419517648967272e+00   1.652663224722744e-04
2017-01-01T19:46:50.000  -1.949264613413417e+04   3.738797118051462e+04  -6.063745740978946e-01  -2.726368863834375e+00  -1.421506144384755e+00   1.653350505902682e-04
2017-01-01T19:47:00.000  -1.951990463825714e+04   3.737374617952722e+04  -6.047208802892625e-01  -2.725331636576312e+00  -1.423493883973635e+00   1.654036916062685e-04
2017-01-01T19:47:10.000  -1.954715276269298e+04   3.735950130501436e+04  -6.030665005163414e-01  -2.724292960019562e+00  -1.425480866669042e+00   1.654722454663553e-04
2017-01-01T19:47:20.000  -1.957439049287737e+04   3.734523656459001e+04  -6.014114356555086e-01  -2.723252834719228e+00  -1.427467091408850e+00   1.655407121167562e-04
2017-01-01T19:47:30.000  -1.960161781431493e+04   3.733095196584507e+04  -5.997556865798034e-01  -2.722211261228730e+00  -1.429452557135962e+00   1.656090915039034e-04
2017-01-01T19:47:40.000  -1.962883471249686e+04   3.731664751639139e+04  -5.980992541639749e-01  -2.721168240103021e+00  -1.431437262792303e+00   1.656773835742352e-04
2017-01-01T19:47:50.000  -1.965604117325859e+04   3.730232322367129e+04  -5.964421392625887e-01  -2.720123771884691e+00  -1.433421207344900e+00   1.657455882750698e-04
2017-01-01T19:48:00.000  -1.968323718234618e+04   3.728797909518801e+04  -5.947843427365432e-01  -2.719077857120771e+00  -1.435404389754261e+00   1.658137055535408e-04
2017-01-01T19:48:10.000  -1.971042272558025e+04   3.727361513841869e+04  -5.931258654430522e-01  -2.718030496356391e+00  -1.437386808986333e+00   1.658817353570008e-04
2017-01-01T19:48:20.000  -1.973759778822042e+04   3.725923136115020e+04  -5.914667082744176e-01  -2.716981690159260e+00  -1.439368463966152e+00   1.659496776314461e-04
2017-01-01T19:48:30.000  -1.976476235560098e+04   3.724482777114353e+04  -5.898068721192632e-01  -2.715931439095209e+00  -1.441349353624201e+00   1.660175323230936e-04
2017-01-01T19:48:40.000  -1.979191641296676e+04   3.723040437622022e+04  -5.881463578725331e-01  -2.714879743734480e+00  -1.443329476884437e+00   1.660852993779731e-04
2017-01-01T19:48:50.000  -1.981905994590788e+04   3.721596118403427e+04  -5.864851664090530e-01  -2.713826604635099e+00  -1.445308832695998e+00   1.661529787430064e-04
2017-01-01T19:49:00.000  -1.984619294000079e+04   3.720149820226005e+04  -5.848232986053353e-01  -2.712772022356574e+00  -1.447287420007023e+00   1.662205703651178e-04
2017-01-01T19:49:10.000  -1.987331538089109e+04   3.718701543854892e+04  -5.831607553345530e-01  -2.711715997456743e+00  -1.449265237770694e+00   1.662880741914379e-04
2017-01-01T19:49:20.000  -1.990042725426080e+04   3.717251290054496e+04  -5.814975374684469e-01  -2.710658530492911e+00  -1.451242284942850e+00   1.663554901692290e-04
2017-01-01T19:49:30.000  -1.992752854581385e+04   3.715799059589420e+04  -5.798336458782953e-01  -2.709599622022522e+00  -1.453218560480928e+00   1.664228182458424e-04
2017-01-01T19:49:40.000  -1.995461924124360e+04   3.714344853226187e+04  -5.781690814369036e-01  -2.708539272604422e+00  -1.455194063341590e+00   1.664900583686401e-04
2017-01-01T19:49:50.000  -1.998169932621709e+04   3.712888671733948e+04  -5.765038450194967e-01  -2.707477482799375e+00  -1.457168792479584e+00   1.665572104849463e-04
2017-01-01T19:50:00.000  -2.000876878634390e+04   3.711430515886334e+04  -5.748379375057246e-01  -2.706414253171410e+00  -1.459142746845463e+00   1.666242745419805e-04
2017-01-01T19:50:10.000  -2.003582760725809e+04   3.709970386456963e+04  -5.731713597745848e-01  -2.705349584284551e+00  -1.461115925391568e+00   1.666912504870567e-04
2017-01-01T19:50:20.000  -2.006287577426271e+04   3.708508284238880e+04  -5.715041127264444e-01  -2.704283476716983e+00  -1.463088327046102e+00   1.667581382667127e-04
2017-01-01T19:50:30.000  -2.008991327276085e+04   3.707044210021048e+04  -5.698361972563651e-01  -2.703215931043913e+00  -1.465059950744561e+00   1.668249378277687e-04
2017-01-01T19:50:40.000  -2.011694008809522e+04   3.705578164597066e+04  -5.681676142640147e-01  -2.702146947843937e+00  -1.467030795418040e+00   1.668916491169315e-04
2017-01-01T19:50:50.000  -2.014395620616995e+04   3.704110148731465e+04  -5.664983646152932e-01  -2.701076527674451e+00  -1.469000860038572e+00   1.669582720823327e-04
2017-01-01T19:51:00.000  -2.017096161283035e+04   3.702640163193314e+04  -5.648284491806028e-01  -2.700004671096159e+00  -1.470970143573901e+00   1.670248066719927e-04
2017-01-01T19:51:10.000  -2.019795629400355e+04   3.701168208748635e+04  -5.631578688261879e-01  -2.698931378667546e+00  -1.472938644997737e+00   1.670912528341723e-04
2017-01-01T19:51:20.000  -2.022494023534750e+04   3.699694286179195e+04  -5.614866244356791e-01  -2.697856650958577e+00  -1.474906363264163e+00   1.671576105164896e-04
2017-01-01T19:51:30.000  -2.025191342251204e+04   3.698218396268637e+04  -5.598147168941232e-01  -2.696780488540587e+00  -1.476873297326668e+00   1.672238796665830e-04
